NORAD_CAT_ID,OBJECT_NAME,OBJECT_TYPE,EPOCH,MEAN_MOTION,ECCENTRICITY,INCLINATION,RA_OF_ASC_NODE,ARG_OF_PERICENTER,MEAN_ANOMALY,BSTAR,MEAN_MOTION_DOT,MEAN_MOTION_DDOT,TLE_LINE0,TLE_LINE1,TLE_LINE2,SEMIMAJOR_AXIS,PERIOD,APOGEE,PERIGEE,DECAYED
53826.0,STARLINK-4756,PAYLOAD,2022-12-11 20:33:58,15.08826348,0.0001571999999999,53.2181,218.4796,83.9958,276.1213,0.00027348,4.066e-05,0.0,0 STARLINK-4756,1 53826U 22114J   22345.85693096  .00004066  00000-0  27348-3 0  9999,2 53826  53.2181 218.4796 0001572  83.9958 276.1213 15.08826348 13573,6917.922,95.438,540.875,538.7,0.0
53826.0,STARLINK-4756,PAYLOAD,2022-12-11 23:44:45,15.0882521,0.0001761,53.2171,217.8871,54.308,305.8076,0.00025349,3.747e-05,0.0,0 STARLINK-4756,1 53826U 22114J   22345.98941541  .00003747  00000-0  25349-3 0  9998,2 53826  53.2171 217.8871 0001761  54.3080 305.8076 15.08825210 14134,6917.926,95.438,541.009,538.572,0.0
53826.0,STARLINK-4756,PAYLOAD,2022-12-12 15:38:36,15.08846942,0.0001477,53.2167,214.9143,59.8366,300.2772,1.7164e-05,-1.5e-07,0.0,0 STARLINK-4756,1 53826U 22114J   22346.65181305 -.00000015  00000-0  17164-4 0  9990,2 53826  53.2167 214.9143 0001477  59.8366 300.2772 15.08846942 13697,6917.859,95.437,540.746,538.702,0.0
53826.0,STARLINK-4756,PAYLOAD,2022-12-12 22:00:09,15.08842408,0.0001663,53.217,213.7244,55.0019,305.1129,-1.6648e-05,-5.53e-06,0.0,0 STARLINK-4756,1 53826U 22114J   22346.91677648 -.00000553  00000-0 -16648-4 0  9993,2 53826  53.2170 213.7244 0001663  55.0019 305.1129 15.08842408 13738,6917.873000000001,95.437,540.888,538.5880000000002,0.0
53826.0,STARLINK-4756,PAYLOAD,2022-12-13 17:04:47,15.08838336,0.0001554,53.2159,210.157,50.7284,309.3846,-2.3772e-05,-6.66e-06,0.0,0 STARLINK-4756,1 53826U 22114J   22347.71165662 -.00000666  00000-0 -23772-4 0  9991,2 53826  53.2159 210.1570 0001554  50.7284 309.3846 15.08838336 14393,6917.885,95.438,540.826,538.675,0.0
53826.0,STARLINK-4756,PAYLOAD,2022-12-14 01:01:43,15.08834416,0.0001665999999999,53.2158,208.6714,49.0178,311.0958,-4.01e-05,-9.26e-06,0.0,0 STARLINK-4756,1 53826U 22114J   22348.04286024 -.00000926  00000-0 -40100-4 0  9997,2 53826  53.2158 208.6714 0001666  49.0178 311.0958 15.08834416 13906,6917.897,95.438,540.915,538.61,0.0
53826.0,STARLINK-4756,PAYLOAD,2022-12-14 07:23:15,15.08838732,0.0001635,53.2156,207.4834,48.0545,312.0587,1.6344e-07,-2.85e-06,0.0,0 STARLINK-4756,1 53826U 22114J   22348.30781605 -.00000285  00000-0  16344-6 0  9993,2 53826  53.2156 207.4834 0001635  48.0545 312.0587 15.08838732 14485,6917.884,95.438,540.88,538.618,0.0
53826.0,STARLINK-4756,PAYLOAD,2022-12-14 21:41:43,15.08840423,0.0001629,53.2158,204.8068,48.308,311.8051,4.938300000000001e-05,4.98e-06,0.0,0 STARLINK-4756,1 53826U 22114J   22348.90397207  .00000498  00000-0  49383-4 0  9992,2 53826  53.2158 204.8068 0001629  48.3080 311.8051 15.08840423 14570,6917.879,95.438,540.871,538.617,0.0
53826.0,STARLINK-4756,PAYLOAD,2022-12-15 13:35:34,15.08833921,0.0001609,53.2149,201.8332,53.1912,306.9227,3.3056e-05,2.38e-06,0.0,0 STARLINK-4756,1 53826U 22114J   22349.56637691  .00000238  00000-0  33056-4 0  9991,2 53826  53.2149 201.8332 0001609  53.1912 306.9227 15.08833921 14673,6917.899,95.438,540.877,538.651,0.0
53826.0,STARLINK-4756,PAYLOAD,2022-12-15 19:57:07,15.08838086,0.0001619,53.2149,200.6439,54.5292,305.5851,6.1609e-05,6.93e-06,0.0,0 STARLINK-4756,1 53826U 22114J   22349.83133373  .00000693  00000-0  61609-4 0  9999,2 53826  53.2149 200.6439 0001619  54.5292 305.5851 15.08838086 14715,6917.886,95.438,540.871,538.631,0.0
53826.0,STARLINK-4756,PAYLOAD,2022-12-15 23:07:53,15.08841222,0.00017,53.2152,200.0487,51.65,308.4645,9.2122e-05,1.178e-05,0.0,0 STARLINK-4756,1 53826U 22114J   22349.96381109  .00001178  00000-0  92122-4 0  9998,2 53826  53.2152 200.0487 0001700  51.6500 308.4645 15.08841222 14198,6917.877,95.437,540.918,538.566,0.0
53826.0,STARLINK-4756,PAYLOAD,2022-12-16 13:26:22,15.08831608,0.0001922,53.2157,197.3718,53.8521,306.2649,-5.8329e-05,-1.216e-05,0.0,0 STARLINK-4756,1 53826U 22114J   22350.55998491 -.00001216  00000-0 -58329-4 0  9999,2 53826  53.2157 197.3718 0001922  53.8521 306.2649 15.08831608 14288,6917.906,95.438,541.101,538.441,0.0
53826.0,STARLINK-4756,PAYLOAD,2022-12-16 19:47:55,15.08831204,0.0001638,53.2154,196.1833,56.9309,303.184,-2.1498e-06,-3.22e-06,0.0,0 STARLINK-4756,1 53826U 22114J   22350.82494307 -.00000322  00000-0 -21498-5 0  9991,2 53826  53.2154 196.1833 0001638  56.9309 303.1840 15.08831204 14867,6917.906999999997,95.438,540.905,538.639,0.0
53826.0,STARLINK-4756,PAYLOAD,2022-12-17 06:55:36,15.088340300000002,0.0001702,53.2152,194.1014,55.5809,304.5343,4.6555e-05,4.53e-06,0.0,0 STARLINK-4756,1 53826U 22114J   22351.28862174  .00000453  00000-0  46555-4 0  9996,2 53826  53.2152 194.1014 0001702  55.5809 304.5343 15.08834030 14397,6917.899,95.438,540.941,538.586,0.0
53826.0,STARLINK-4756,PAYLOAD,2022-12-17 13:17:09,15.08836439,0.0001691,53.215,192.9116,56.1832,303.9321,3.7871e-05,3.15e-06,0.0,0 STARLINK-4756,1 53826U 22114J   22351.55358127  .00000315  00000-0  37871-4 0  9992,2 53826  53.2150 192.9116 0001691  56.1832 303.9321 15.08836439 14972,6917.891,95.438,540.9259999999998,538.586,0.0
53826.0,STARLINK-4756,PAYLOAD,2022-12-17 19:38:41,15.08839905,0.0001740999999999,53.2152,191.7224,57.2036,302.9124,4.4316e-05,4.17e-06,0.0,0 STARLINK-4756,1 53826U 22114J   22351.81853919  .00000417  00000-0  44316-4 0  9995,2 53826  53.2152 191.7224 0001741  57.2036 302.9124 15.08839905 15012,6917.880999999999,95.438,540.95,538.5409999999998,0.0
53826.0,STARLINK-4756,PAYLOAD,2022-12-17 21:14:04,15.08843011,0.0001763,53.2153,191.4245,56.1645,303.9515,2.4497e-05,1.02e-06,0.0,0 STARLINK-4756,1 53826U 22114J   22351.88477799  .00000102  00000-0  24497-4 0  9999,2 53826  53.2153 191.4245 0001763  56.1645 303.9515 15.08843011 14489,6917.871,95.437,540.956,538.5169999999998,0.0
53826.0,STARLINK-4756,PAYLOAD,2022-12-18 13:07:55,15.08842664,0.0001756,53.2159,188.4515,55.5971,304.5187,0.00010065,1.314e-05,0.0,0 STARLINK-4756,1 53826U 22114J   22352.54717544  .00001314  00000-0  10065-3 0  9999,2 53826  53.2159 188.4515 0001756  55.5971 304.5187 15.08842664 15125,6917.871999999999,95.437,540.952,538.5219999999998,0.0
53826.0,STARLINK-4756,PAYLOAD,2022-12-18 19:29:28,15.08845102,0.0001776,53.2156,187.2619,55.9598,304.1562,0.00011441,1.533e-05,0.0,0 STARLINK-4756,1 53826U 22114J   22352.81213264  .00001533  00000-0  11441-3 0  9991,2 53826  53.2156 187.2619 0001776  55.9598 304.1562 15.08845102 15162,6917.865,95.437,540.9580000000002,538.501,0.0
53826.0,STARLINK-4756,PAYLOAD,2022-12-19 06:37:10,15.088418099999998,0.0001803,53.2154,185.1807,55.6084,304.5079,5.5316e-05,5.92e-06,0.0,0 STARLINK-4756,1 53826U 22114J   22353.27581585  .00000592  00000-0  55316-4 0  9990,2 53826  53.2154 185.1807 0001803  55.6084 304.5079 15.08841810 14690,6917.875,95.437,540.987,538.493,0.0
53826.0,STARLINK-4756,PAYLOAD,2022-12-19 19:20:16,15.08836483,0.0001849,53.2161,182.8019,60.7914,299.3262,-2.0274e-05,-6.11e-06,0.0,0 STARLINK-4756,1 53826U 22114J   22353.80574190 -.00000611  00000-0 -20274-4 0  9992,2 53826  53.2161 182.8019 0001849  60.7914 299.3262 15.08836483 15311,6917.891,95.438,541.035,538.477,0.0
53826.0,STARLINK-4756,PAYLOAD,2022-12-20 12:49:31,15.08840776,0.0001720999999999,53.2171,179.53099999999995,51.2374,308.8771,-0.00018412,-3.217e-05,0.0,0 STARLINK-4756,1 53826U 22114J   22354.53438751 -.00003217  00000-0 -18412-3 0  9990,2 53826  53.2171 179.5310 0001721  51.2374 308.8771 15.08840776 15426,6917.878000000002,95.438,540.934,538.552,0.0
53826.0,STARLINK-4756,PAYLOAD,2022-12-21 12:40:18,15.08826877,0.0001735,53.2179,175.0699,62.122,297.9948,2.184e-05,5.9e-07,0.0,0 STARLINK-4756,1 53826U 22114J   22355.52799271  .00000059  00000-0  21840-4 0  9996,2 53826  53.2179 175.0699 0001735  62.1220 297.9948 15.08826877 15038,6917.920999999999,95.438,540.986,538.585,0.0
53826.0,STARLINK-4756,PAYLOAD,2022-12-21 15:51:06,15.0881195,0.0001647,53.218,174.4751,55.0045,305.1101,-0.00010311,-1.927e-05,0.0,0 STARLINK-4756,1 53826U 22114J   22355.66048702 -.00001927  00000-0 -10311-3 0  9994,2 53826  53.2180 174.4751 0001647  55.0045 305.1101 15.08811950 15051,6917.965999999999,95.439,540.971,538.692,0.0
53826.0,STARLINK-4756,PAYLOAD,2022-12-22 04:34:10,15.08826001,0.0001398,53.2192,172.0984,68.4199,291.6942,3.2106e-05,2.23e-06,0.0,0 STARLINK-4756,1 53826U 22114J   22356.19040239  .00000223  00000-0  32106-4 0  9993,2 53826  53.2192 172.0984 0001398  68.4199 291.6942 15.08826001 15131,6917.9230000000025,95.438,540.755,538.821,0.0
53826.0,STARLINK-4756,PAYLOAD,2022-12-22 12:31:06,15.08832159,0.0001633,53.2169,170.609,54.0638,306.0505,0.00010166,1.33e-05,0.0,0 STARLINK-4756,1 53826U 22114J   22356.52159913  .00001330  00000-0  10166-3 0  9991,2 53826  53.2169 170.6090 0001633  54.0638 306.0505 15.08832159 15180,6917.904,95.438,540.899,538.64,0.0
53826.0,STARLINK-4756,PAYLOAD,2022-12-22 20:28:01,15.08837431,0.0001694,53.2173,169.1225,55.1363,304.9788,0.00013644,1.884e-05,0.0,0 STARLINK-4756,1 53826U 22114J   22356.85279655  .00001884  00000-0  13644-3 0  9991,2 53826  53.2173 169.1225 0001694  55.1363 304.9788 15.08837431 15775,6917.888000000001,95.438,540.925,538.581,0.0
53826.0,STARLINK-4756,PAYLOAD,2022-12-23 12:21:52,15.08833861,0.0001714,53.2178,166.1492,50.219,309.8952,0.00024657,3.638e-05,0.0,0 STARLINK-4756,1 53826U 22114J   22357.51519460  .00003638  00000-0  24657-3 0  9991,2 53826  53.2178 166.1492 0001714  50.2190 309.8952 15.08833861 15332,6917.899,95.438,540.95,538.578,0.0
53826.0,STARLINK-4756,PAYLOAD,2022-12-23 20:18:48,15.08838862,0.0001748,53.2177,164.6625,48.6655,311.4488,0.00027887,4.153e-05,0.0,0 STARLINK-4756,1 53826U 22114J   22357.84639136  .00004153  00000-0  27887-3 0  9991,2 53826  53.2177 164.6625 0001748  48.6655 311.4488 15.08838862 15920,6917.884,95.438,540.9580000000002,538.54,0.0
